NORAD_CAT_ID,OBJECT_NAME,OBJECT_TYPE,EPOCH,MEAN_MOTION,ECCENTRICITY,INCLINATION,RA_OF_ASC_NODE,ARG_OF_PERICENTER,MEAN_ANOMALY,BSTAR,MEAN_MOTION_DOT,MEAN_MOTION_DDOT,TLE_LINE0,TLE_LINE1,TLE_LINE2,SEMIMAJOR_AXIS,PERIOD,APOGEE,PERIGEE,DECAYED
55425.0,STARLINK-5615,PAYLOAD,2023-09-02 10:05:29,14.98330982,0.0003851,69.999,242.2945,268.8499,91.2219,2.2467e-05,1.75e-06,0.0,0 STARLINK-5615,1 55425U 23014AL  23245.42047546  .00000175  00000-0  22467-4 0  9997,2 55425  69.9990 242.2945 0003851 268.8499  91.2219 14.98330982 32923,6950.19,96.107,574.731,569.378,0.0
55425.0,STARLINK-5615,PAYLOAD,2023-09-03 10:07:30,14.98331106,0.0003595,69.9998,239.7703,267.5752,92.4996,-2.7185e-06,-1.26e-06,0.0,0 STARLINK-5615,1 55425U 23014AL  23246.42187593 -.00000126  00000-0 -27185-5 0  9996,2 55425  69.9998 239.7703 0003595 267.5752  92.4996 14.98331106 33078,6950.189,96.107,574.553,569.556,0.0
55425.0,STARLINK-5615,PAYLOAD,2023-09-04 11:45:39,14.98328409,0.000363,69.9995,237.0764,268.9228,91.1515,-9.326e-06,-2.04e-06,0.0,0 STARLINK-5615,1 55425U 23014AL  23247.49003801 -.00000204  00000-0 -93260-5 0  9997,2 55425  69.9995 237.0764 0003630 268.9228  91.1515 14.98328409 34173,6950.198,96.107,574.586,569.54,0.0
55425.0,STARLINK-5615,PAYLOAD,2023-09-04 16:34:03,14.98328457,0.0003643,69.9995,236.5715,269.047,91.0271,-6.1744e-06,-1.67e-06,0.0,0 STARLINK-5615,1 55425U 23014AL  23247.69031799 -.00000167  00000-0 -61744-5 0  9996,2 55425  69.9995 236.5715 0003643 269.0470  91.0271 14.98328457 33268,6950.198,96.107,574.595,569.531,0.0
55425.0,STARLINK-5615,PAYLOAD,2023-09-05 05:23:07,14.98329582,0.0003647,69.9996,235.2249,268.719,91.3552,7.7393e-06,-1e-08,0.0,0 STARLINK-5615,1 55425U 23014AL  23248.22439705 -.00000001  00000-0  77393-5 0  9998,2 55425  69.9996 235.2249 0003647 268.7190  91.3552 14.98329582 34284,6950.194,96.107,574.594,569.524,0.0
55425.0,STARLINK-5615,PAYLOAD,2023-09-05 16:36:04,14.98330226,0.0003657,69.9996,234.0466,269.1116,90.9624,8.388e-06,7e-08,0.0,0 STARLINK-5615,1 55425U 23014AL  23248.69171648  .00000007  00000-0  83880-5 0  9991,2 55425  69.9996 234.0466 0003657 269.1116  90.9624 14.98330226 33412,6950.192,96.107,574.599,569.516,0.0
55425.0,STARLINK-5615,PAYLOAD,2023-09-06 08:37:25,14.98322821,0.0003519,69.9999,232.3627,264.7358,95.3399,0.00015369,1.741e-05,0.0,0 STARLINK-5615,1 55425U 23014AL  23249.35931780  .00001741  00000-0  15369-3 0  9997,2 55425  69.9999 232.3627 0003519 264.7358  95.3399 14.98322821 34456,6950.215,96.107,574.526,569.634,0.0
55425.0,STARLINK-5615,PAYLOAD,2023-09-06 16:38:05,14.98327482,0.0003753,69.9994,231.5212,261.7774,98.296,4.6207e-05,4.58e-06,0.0,0 STARLINK-5615,1 55425U 23014AL  23249.69311643  .00000458  00000-0  46207-4 0  9994,2 55425  69.9994 231.5212 0003753 261.7774  98.2960 14.98327482 33566,6950.201,96.107,574.674,569.457,0.0
55425.0,STARLINK-5615,PAYLOAD,2023-09-07 08:39:25,14.98331645,0.0003723,69.9994,229.8386,270.9326,89.1406,-6.4913e-06,-1.71e-06,0.0,0 STARLINK-5615,1 55425U 23014AL  23250.36071579 -.00000171  00000-0 -64913-5 0  9990,2 55425  69.9994 229.8386 0003723 270.9326  89.1406 14.98331645 34606,6950.188,96.107,574.64,569.465,0.0
55425.0,STARLINK-5615,PAYLOAD,2023-09-08 02:16:54,14.98331229,0.0003591,69.9996,227.9871,269.1692,90.9055,2.7232e-06,-6.1e-07,0.0,0 STARLINK-5615,1 55425U 23014AL  23251.09507506 -.00000061  00000-0  27232-5 0  9995,2 55425  69.9996 227.9871 0003591 269.1692  90.9055 14.98331229 33770,6950.189,96.107,574.55,569.558,0.0
55425.0,STARLINK-5615,PAYLOAD,2023-09-08 10:17:34,14.9833473,0.0003607,70.0,227.1456,269.4582,90.6163,2.8293e-05,2.45e-06,0.0,0 STARLINK-5615,1 55425U 23014AL  23251.42887164  .00000245  00000-0  28293-4 0  9993,2 55425  70.0000 227.1456 0003607 269.4582  90.6163 14.98334730 34766,6950.178,96.107,574.55,569.536,0.0
55425.0,STARLINK-5615,PAYLOAD,2023-09-09 02:18:55,14.9832796,0.0003527,70.0003,225.4625,269.8119,90.2636,-2.1873e-05,-3.54e-06,0.0,0 STARLINK-5615,1 55425U 23014AL  23252.09647731 -.00000354  00000-0 -21873-4 0  9991,2 55425  70.0003 225.4625 0003527 269.8119  90.2636 14.98327960 33924,6950.199,96.107,574.516,569.613,0.0
55425.0,STARLINK-5615,PAYLOAD,2023-09-09 07:07:19,14.98330426,0.0003436,70.0006,224.9582,268.3762,91.7003,8.1393e-06,4e-08,0.0,0 STARLINK-5615,1 55425U 23014AL  23252.29675495  .00000004  00000-0  81393-5 0  9995,2 55425  70.0006 224.9582 0003436 268.3762  91.7003 14.98330426 34892,6950.192,96.107,574.445,569.668,0.0
55425.0,STARLINK-5615,PAYLOAD,2023-09-10 02:20:56,14.98328433,0.0003378,70.0007,222.9385,268.1563,91.921,9.061e-05,9.88e-06,0.0,0 STARLINK-5615,1 55425U 23014AL  23253.09787280  .00000988  00000-0  90610-4 0  9992,2 55425  70.0007 222.9385 0003378 268.1563  91.9210 14.98328433 34071,6950.198,96.107,574.411,569.715,0.0
55425.0,STARLINK-5615,PAYLOAD,2023-09-10 08:45:28,14.98332924,0.0003426,70.0005,222.2646,269.6293,90.4473,5.8514e-05,6.05e-06,0.0,0 STARLINK-5615,1 55425U 23014AL  23253.36491073  .00000605  00000-0  58514-4 0  9997,2 55425  70.0005 222.2646 0003426 269.6293  90.4473 14.98332924 35056,6950.184,96.107,574.43,569.668,0.0
55425.0,STARLINK-5615,PAYLOAD,2023-09-11 02:22:57,14.98328092,0.0003303,70.0009,220.4137,263.3314,96.7469,-1.2651e-05,-2.44e-06,0.0,0 STARLINK-5615,1 55425U 23014AL  23254.09927522 -.00000244  00000-0 -12651-4 0  9994,2 55425  70.0009 220.4137 0003303 263.3314  96.7469 14.98328092 34227,6950.199,96.107,574.359,569.768,0.0
55425.0,STARLINK-5615,PAYLOAD,2023-09-11 07:11:21,14.98327653,0.0003263,70.001,219.9087,265.7974,94.2813,1.4812e-06,-7.5e-07,0.0,0 STARLINK-5615,1 55425U 23014AL  23254.29955574 -.00000075  00000-0  14812-5 0  9997,2 55425  70.0010 219.9087 0003263 265.7974  94.2813 14.98327653 35194,6950.2,96.107,574.333,569.797,0.0
55425.0,STARLINK-5615,PAYLOAD,2023-09-12 02:24:58,14.98331379,0.0003338,70.0009,217.8889,268.1059,91.9717,-1.6578e-05,-2.91e-06,0.0,0 STARLINK-5615,1 55425U 23014AL  23255.10067215 -.00000291  00000-0 -16578-4 0  9995,2 55425  70.0009 217.8889 0003338 268.1059  91.9717 14.98331379 34379,6950.189,96.107,574.374,569.734,0.0
55425.0,STARLINK-5615,PAYLOAD,2023-09-12 07:13:21,14.98335674,0.0003322,70.001,217.3844,268.8263,91.2516,2.7392e-05,2.34e-06,0.0,0 STARLINK-5615,1 55425U 23014AL  23255.30094790  .00000234  00000-0  27392-4 0  9996,2 55425  70.0010 217.3844 0003322 268.8263  91.2516 14.98335674 35344,6950.175,96.107,574.349,569.731,0.0
55425.0,STARLINK-5615,PAYLOAD,2023-09-12 21:38:34,14.98279081,0.0002603,70.0018,215.8697,270.7201,89.366,0.00088353,0.00010451,0.0,0 STARLINK-5615,1 55425U 23014AL  23255.90179296  .00010451  00000-0  88353-3 0  9992,2 55425  70.0018 215.8697 0002603 270.7201  89.3660 14.98279081 35433,6950.35,96.11,574.025,570.406,0.0
55425.0,STARLINK-5615,PAYLOAD,2023-09-13 02:27:00,14.98225727,0.0002606,70.0014,215.3641,274.4633,85.6228,0.0016999,0.00020193,0.0,0 STARLINK-5615,1 55425U 23014AL  23256.10208705  .00020193  00000-0  16999-2 0  9993,2 55425  70.0014 215.3641 0002606 274.4633  85.6228 14.98225727 34522,6950.515,96.114,574.192,570.569,0.0
55425.0,STARLINK-5615,PAYLOAD,2023-09-13 07:15:23,14.98283626,0.0002813,70.0018,214.8597,271.4013,88.6824,0.00086165,0.00010191,0.0,0 STARLINK-5615,1 55425U 23014AL  23256.30236099  .00010191  00000-0  86165-3 0  9992,2 55425  70.0018 214.8597 0002813 271.4013  88.6824 14.98283626 34559,6950.336,96.11,574.156,570.246,0.0
55425.0,STARLINK-5615,PAYLOAD,2023-09-13 15:16:03,14.98327653,0.0002561,70.003,214.0173,276.3133,83.7734,-6.0502e-06,-1.65e-06,0.0,0 STARLINK-5615,1 55425U 23014AL  23256.63615642 -.00000165  00000-0 -60502-5 0  9994,2 55425  70.0030 214.0173 0002561 276.3133  83.7734 14.98327653 34603,6950.2,96.107,573.845,570.285,0.0
55425.0,STARLINK-5615,PAYLOAD,2023-09-13 21:40:36,14.98323549,0.0003086,70.003,213.3442,272.6853,87.3952,3.957e-05,3.79e-06,0.0,0 STARLINK-5615,1 55425U 23014AL  23256.90319602  .00000379  00000-0  39570-4 0  9996,2 55425  70.0030 213.3442 0003086 272.6853  87.3952 14.98323549 35585,6950.213,96.107,574.223,569.933,0.0
55425.0,STARLINK-5615,PAYLOAD,2023-09-14 02:29:00,14.98317838,0.0003389,70.0009,212.8388,269.0199,91.0572,-6.776e-05,-9.01e-06,0.0,0 STARLINK-5615,1 55425U 23014AL  23257.10348270 -.00000901  00000-0 -67760-4 0  9997,2 55425  70.0009 212.8388 0003389 269.0199  91.0572 14.98317838 34676,6950.231,96.108,574.451,569.74,0.0
55425.0,STARLINK-5615,PAYLOAD,2023-09-14 07:17:25,14.98319638,0.0003295,70.0011,212.3339,268.4939,91.5842,-5.4041e-05,-7.38e-06,0.0,0 STARLINK-5615,1 55425U 23014AL  23257.30376261 -.00000738  00000-0 -54041-4 0  9996,2 55425  70.0011 212.3339 0003295 268.4939  91.5842 14.98319638 35644,6950.225,96.108,574.38,569.8,0.0
55425.0,STARLINK-5615,PAYLOAD,2023-09-14 21:42:36,14.98329888,0.00033,70.0006,210.8191,270.3037,89.7744,3.3098e-05,3.02e-06,0.0,0 STARLINK-5615,1 55425U 23014AL  23257.90459429  .00000302  00000-0  33098-4 0  9994,2 55425  70.0006 210.8191 0003300 270.3037  89.7744 14.98329888 35733,6950.193,96.107,574.352,569.765,0.0
55425.0,STARLINK-5615,PAYLOAD,2023-09-15 02:31:01,14.98330782,0.0003298,70.0007,210.3142,270.3662,89.7119,4.4938e-05,4.43e-06,0.0,0 STARLINK-5615,1 55425U 23014AL  23258.10487341  .00000443  00000-0  44938-4 0  9992,2 55425  70.0007 210.3142 0003298 270.3662  89.7119 14.98330782 34825,6950.19,96.107,574.348,569.763,0.0
55425.0,STARLINK-5615,PAYLOAD,2023-09-15 07:19:24,14.98336966,0.0003327,70.0008,209.8092,272.245,87.8328,9.9455e-05,1.094e-05,0.0,0 STARLINK-5615,1 55425U 23014AL  23258.30514766  .00001094  00000-0  99455-4 0  9993,2 55425  70.0008 209.8092 0003327 272.2450  87.8328 14.98336966 34856,6950.171,96.107,574.349,569.724,0.0
55425.0,STARLINK-5615,PAYLOAD,2023-09-16 02:33:02,14.98325673,0.0002991,70.0016,207.7901,265.3733,94.7085,0.00010776,1.193e-05,0.0,0 STARLINK-5615,1 55425U 23014AL  23259.10627377  .00001193  00000-0  10776-3 0  9993,2 55425  70.0016 207.7901 0002991 265.3733  94.7085 14.98325673 34977,6950.206,96.107,574.15,569.992,0.0
